{
  "norad_id": 61014,
  "name": "GEESAT-3 04",
  "history": [
    {
      "epoch": "2026-04-10T06:20:41.348544Z",
      "apogee_km": 621.5855653032631,
      "perigee_km": 617.9288856546809,
      "latitude_deg": 1.8916862271730658e-05,
      "longitude_deg": 14.943227208956845,
      "height_km": 622.1037217215367,
      "semi_major_axis_km": 6997.894225478972,
      "eccentricity": 0.00026127,
      "inclination_deg": 49.9985,
      "raan_deg": 308.6162,
      "arg_perigee_deg": 170.5151,
      "mean_anomaly_deg": 189.5837,
      "mean_motion_rev_day": 14.83036027
    },
    {
      "epoch": "2026-04-11T19:32:20.412096Z",
      "apogee_km": 621.600641789284,
      "perigee_km": 617.8847676660735,
      "latitude_deg": -2.108709179359184e-05,
      "longitude_deg": 168.3278151277446,
      "height_km": 622.140122307967,
      "semi_major_axis_km": 6997.8797047276785,
      "eccentricity": 0.0002655,
      "inclination_deg": 49.9983,
      "raan_deg": 301.4411,
      "arg_perigee_deg": 176.259,
      "mean_anomaly_deg": 183.8368,
      "mean_motion_rev_day": 14.83040643
    },
    {
      "epoch": "2026-04-13T00:38:50.676288Z",
      "apogee_km": 621.582008442555,
      "perigee_km": 617.8823749582871,
      "latitude_deg": 1.5766658673256008e-06,
      "longitude_deg": 84.8905926734125,
      "height_km": 622.1255777050064,
      "semi_major_axis_km": 6997.869191700421,
      "eccentricity": 0.00026434,
      "inclination_deg": 49.9991,
      "raan_deg": 295.8254,
      "arg_perigee_deg": 180.8418,
      "mean_anomaly_deg": 179.2516,
      "mean_motion_rev_day": 14.83043985
    },
    {
      "epoch": "2026-04-14T20:18:35.561088Z",
      "apogee_km": 621.6021341623218,
      "perigee_km": 617.8288920872455,
      "latitude_deg": 3.944801775540631e-05,
      "longitude_deg": 139.73755228614255,
      "height_km": 622.127951144313,
      "semi_major_axis_km": 6997.852513124783,
      "eccentricity": 0.0002696,
      "inclination_deg": 49.999,
      "raan_deg": 287.4025,
      "arg_perigee_deg": 187.9894,
      "mean_anomaly_deg": 172.1002,
      "mean_motion_rev_day": 14.83049287
    },
    {
      "epoch": "2026-04-15T20:34:00.256224Z",
      "apogee_km": 621.608454774575,
      "perigee_km": 617.8044270800874,
      "latitude_deg": 5.8413832189167686e-05,
      "longitude_deg": 130.20907983023451,
      "height_km": 622.1119533511828,
      "semi_major_axis_km": 6997.843440927331,
      "eccentricity": 0.0002718,
      "inclination_deg": 49.9989,
      "raan_deg": 282.7231,
      "arg_perigee_deg": 191.8916,
      "mean_anomaly_deg": 168.1959,
      "mean_motion_rev_day": 14.83052171
    },
    {
      "epoch": "2026-04-16T20:49:24.801024Z",
      "apogee_km": 621.6221079491188,
      "perigee_km": 617.7649037742876,
      "latitude_deg": 3.333319795751149e-05,
      "longitude_deg": 120.68109870831974,
      "height_km": 622.0939953823074,
      "semi_major_axis_km": 6997.830505861703,
      "eccentricity": 0.0002756,
      "inclination_deg": 49.9988,
      "raan_deg": 278.0436,
      "arg_perigee_deg": 195.7734,
      "mean_anomaly_deg": 164.3119,
      "mean_motion_rev_day": 14.83056283
    },
    {
      "epoch": "2026-04-17T22:41:50.810208Z",
      "apogee_km": 621.6048213084832,
      "perigee_km": 617.7597995101869,
      "latitude_deg": -2.669432861318753e-05,
      "longitude_deg": 86.51837539178202,
      "height_km": 622.0349508449162,
      "semi_major_axis_km": 6997.819310409335,
      "eccentricity": 0.00027473,
      "inclination_deg": 49.9987,
      "raan_deg": 273.0519,
      "arg_perigee_deg": 199.8802,
      "mean_anomaly_deg": 160.2029,
      "mean_motion_rev_day": 14.83059842
    }
  ]
}